[{"OBJECT_NAME":"TRANSPORTER-11 OBJECT A","OBJECT_ID":"2024-149A","EPOCH":"2026-03-09T17:54:54.302112","MEAN_MOTION":15.31141332,"ECCENTRICITY":0.00031096,"INCLINATION":97.378,"RA_OF_ASC_NODE":149.0949,"ARG_OF_PERICENTER":191.001,"MEAN_ANOMALY":169.1164,"EPHEMERIS_TYPE":0,"CLASSIFICATION_TYPE":"U","NORAD_CAT_ID":60468,"ELEMENT_SET_NO":999,"REV_AT_EPOCH":8683,"BSTAR":0.00036053677,"MEAN_MOTION_DOT":0.00010774,"MEAN_MOTION_DDOT":0},{"OBJECT_NAME":"STARLINK-34673","OBJECT_ID":"2025-167N","EPOCH":"2026-03-09T06:40:38.602848","MEAN_MOTION":15.30197018,"ECCENTRICITY":0.00011285,"INCLINATION":53.1616,"RA_OF_ASC_NODE":28.797,"ARG_OF_PERICENTER":99.5608,"MEAN_ANOMALY":260.5521,"EPHEMERIS_TYPE":0,"CLASSIFICATION_TYPE":"U","NORAD_CAT_ID":65090,"ELEMENT_SET_NO":999,"REV_AT_EPOCH":3341,"BSTAR":0.0014778358,"MEAN_MOTION_DOT":0.00043663,"MEAN_MOTION_DDOT":0}]
